{"fetched_at":"2026-03-29T16:36:15Z","count":15609,"tles":[{"name":"STARLINK-32803","line1":"1 63024U 25032V   26087.72456601  .00038046  00000+0  13835-2 0  9993","line2":"2 63024  43.0020 228.3337 0001845 272.9494  87.1147 15.27615208 63373","category":"Starlink"}]}